[{"OBJECT_NAME":"ONEWEB-0616","OBJECT_ID":"2023-004T","EPOCH":"2026-03-09T21:28:01.784640","MEAN_MOTION":13.17649183,"ECCENTRICITY":0.00017835,"INCLINATION":87.9156,"RA_OF_ASC_NODE":25.5826,"ARG_OF_PERICENTER":111.1762,"MEAN_ANOMALY":248.956,"EPHEMERIS_TYPE":0,"CLASSIFICATION_TYPE":"U","NORAD_CAT_ID":55157,"ELEMENT_SET_NO":999,"REV_AT_EPOCH":15462,"BSTAR":-0.00010483519,"MEAN_MOTION_DOT":-2.8e-7,"MEAN_MOTION_DDOT":0},{"OBJECT_NAME":"OPS 4682 DEB","OBJECT_ID":"1965-027C","EPOCH":"2026-03-09T22:01:35.411808","MEAN_MOTION":13.22363751,"ECCENTRICITY":0.00362446,"INCLINATION":90.2606,"RA_OF_ASC_NODE":25.0203,"ARG_OF_PERICENTER":89.1257,"MEAN_ANOMALY":271.4031,"EPHEMERIS_TYPE":0,"CLASSIFICATION_TYPE":"U","NORAD_CAT_ID":1316,"ELEMENT_SET_NO":999,"REV_AT_EPOCH":90588,"BSTAR":0.0024977229,"MEAN_MOTION_DOT":1.052e-5,"MEAN_MOTION_DDOT":0}]
